IRIDIUM 150             
1 43257U 18030J   24210.53286376  .00000120  00000+0  35783-4 0  9994
2 43257  86.3963 218.2422 0002346  83.3577 276.7885 14.34217803331471
IRIDIUM 143             
1 43258U 18030K   24209.95569095 -.00000067  00000+0 -31120-4 0  9994
2 43258  86.3971 218.5489 0002090  81.0089 279.1343 14.34215991331333
IRIDIUM 161             
1 43478U 18047C   24210.02045019  .00000209  00000+0  56185-4 0  9995
2 43478  86.4494  16.4685 0002092  87.6250 272.5190 14.43276176325731
IRIDIUM 152             
1 43479U 18047D   24210.55632233  .00000257  00000+0  84618-4 0  9999
2 43479  86.3973  16.1040 0002197  90.0326 270.1121 14.34218684323795
IRIDIUM 147             
1 43480U 18047E   24210.00451676  .00000443  00000+0  15123-3 0  9992
2 43480  86.3973  16.3276 0002225  93.1327 267.0123 14.34218662323701
IRIDIUM 110             
1 43481U 18047F   24210.22016581  .00000387  00000+0  13097-3 0  9994
2 43481  86.3975  16.3115 0002387 100.1857 259.9608 14.34217213323723
IRIDIUM 162             
1 43482U 18047G   24210.01422497  .00000642  00000+0  18497-3 0  9992
2 43482  86.4496  16.3706 0002272  89.1136 271.0326 14.43285492325726
IRIDIUM 160             
1 43569U 18061A   24210.44507376  .00000035  00000+0  53845-5 0  9995
2 43569  86.4002 344.6067 0002015 104.2978 255.8441 14.34219004314654
